GLOBALSTAR M035         
1 25851U 99037A   24270.79794015  .00000005  00000+0  26039-2 0  9992
2 25851  51.9936 282.3494 0013688 275.7363 255.2698 11.04533138 67152
GLOBALSTAR M032         
1 25852U 99037B   24270.82707563 -.00000081  00000+0 -45517-3 0  9998
2 25852  51.9921 125.6475 0011482  82.9460 277.2645 11.19063505105309
GLOBALSTAR M051         
1 25853U 99037C   24270.81605206 -.00000053  00000+0  46268-3 0  9991
2 25853  51.9809 316.2438 0001538 106.2261 253.8719 11.42200685102297
GLOBALSTAR M030         
1 25854U 99037D   24270.58526285 -.00000065  00000+0  22022-3 0  9990
2 25854  51.9856 139.6650 0003289 304.0537  55.9967 11.55102024119580
GLOBALSTAR M048         
1 25872U 99041A   24270.64061225 -.00000045  00000+0  68570-3 0  9996
2 25872  51.9347 241.5083 0013444  86.7679  84.6267 11.33849651 95083
GLOBALSTAR M026         
1 25873U 99041B   24270.82933836 -.00000151  00000+0 -32146-2 0  9991
2 25873  52.0034  42.9998 0001738 140.7401  30.1484 11.06831191119325
GLOBALSTAR M043         
1 25874U 99041C   24270.36655991 -.00000125  00000+0 -17047-2 0  9998
2 25874  51.9435 339.2897 0012951 219.6797 220.6627 11.25684276 93161
GLOBALSTAR M028         
1 25875U 99041D   24270.64138722 -.00000111  00000+0 -73141-4 0  9992
2 25875  51.9615 258.9029 0063170 219.0638 140.5651 12.50565215157206
